<?xml version="1.0" encoding="UTF-8"?>
<kml xmlns="http://www.opengis.net/kml/2.2"><Document>
<name>北欧峡湾 8 天 · 奥斯陆-弗洛姆-卑尔根</name>
<Folder><name>Day 1 2026-10-01 — 落地即城市 · 峡湾之城的第一眼</name>
<Placemark><name>1. 奥斯陆机场 OSL</name><Point><coordinates>11.100400,60.193900,0</coordinates></Point></Placemark>
<Placemark><name>2. 奥斯陆中央站 Oslo S</name><Point><coordinates>10.750300,59.911000,0</coordinates></Point></Placemark>
<Placemark><name>3. 奥斯陆歌剧院</name><Point><coordinates>10.753300,59.907500,0</coordinates></Point></Placemark>
<Placemark><name>4. 阿克斯胡斯要塞</name><Point><coordinates>10.736500,59.907500,0</coordinates></Point></Placemark>
<Placemark><name>5. Aker Brygge 海滨</name><Point><coordinates>10.729000,59.911000,0</coordinates></Point></Placemark>
<Placemark><name>6. 挪威国家博物馆</name><Point><coordinates>10.732600,59.911800,0</coordinates></Point></Placemark>
<Placemark><name>Day 1 route</name><Style><LineStyle><color>ff0000ff</color><width>3</width></LineStyle></Style><LineString><coordinates>11.100400,60.193900,0 10.750300,59.911000,0 10.753300,59.907500,0 10.736500,59.907500,0 10.729000,59.911000,0 10.732600,59.911800,0</coordinates></LineString></Placemark>
</Folder>
<Folder><name>Day 2 2026-10-02 — 石头与呐喊 · 雕塑公园、极地船、蒙克</name>
<Placemark><name>1. 奥斯陆中央站 Oslo S(酒店区)</name><Point><coordinates>10.750300,59.911000,0</coordinates></Point></Placemark>
<Placemark><name>2. 维格兰雕塑公园</name><Point><coordinates>10.700000,59.927000,0</coordinates></Point></Placemark>
<Placemark><name>3. Fram 极地船博物馆</name><Point><coordinates>10.698900,59.902600,0</coordinates></Point></Placemark>
<Placemark><name>4. MUNCH 蒙克美术馆</name><Point><coordinates>10.755600,59.906000,0</coordinates></Point></Placemark>
<Placemark><name>5. Bjørvika 海滨食区</name><Point><coordinates>10.746600,59.904600,0</coordinates></Point></Placemark>
<Placemark><name>Day 2 route</name><Style><LineStyle><color>ffff0000</color><width>3</width></LineStyle></Style><LineString><coordinates>10.750300,59.911000,0 10.700000,59.927000,0 10.698900,59.902600,0 10.755600,59.906000,0 10.746600,59.904600,0</coordinates></LineString></Placemark>
</Folder>
<Folder><name>Day 3 2026-10-03 — 翻越山脊 · 卑尔根铁路 + 弗洛姆铁路</name>
<Placemark><name>1. 奥斯陆中央站 Oslo S</name><Point><coordinates>10.750300,59.911000,0</coordinates></Point></Placemark>
<Placemark><name>2. Myrdal 站</name><Point><coordinates>7.122829,60.735171,0</coordinates></Point></Placemark>
<Placemark><name>3. 弗洛姆站 / 码头</name><Point><coordinates>7.113600,60.863100,0</coordinates></Point></Placemark>
<Placemark><name>4. 弗洛姆铁路博物馆</name><Point><coordinates>7.112800,60.863600,0</coordinates></Point></Placemark>
<Placemark><name>Day 3 route</name><Style><LineStyle><color>ff00aa00</color><width>3</width></LineStyle></Style><LineString><coordinates>10.750300,59.911000,0 7.122829,60.735171,0 7.113600,60.863100,0 7.112800,60.863600,0</coordinates></LineString></Placemark>
</Folder>
<Folder><name>Day 4 2026-10-04 — 峡湾静水 · 纳柔伊峡湾与斯泰加斯坦</name>
<Placemark><name>1. 弗洛姆码头</name><Point><coordinates>7.113600,60.863100,0</coordinates></Point></Placemark>
<Placemark><name>2. Gudvangen</name><Point><coordinates>6.839630,60.879109,0</coordinates></Point></Placemark>
<Placemark><name>3. 弗洛姆村中心</name><Point><coordinates>7.114000,60.862500,0</coordinates></Point></Placemark>
<Placemark><name>4. 斯泰加斯坦观景台</name><Point><coordinates>7.213120,60.908176,0</coordinates></Point></Placemark>
<Placemark><name>5. Brekkefossen 瀑布步道</name><Point><coordinates>7.118600,60.869700,0</coordinates></Point></Placemark>
<Placemark><name>Day 4 route</name><Style><LineStyle><color>ff00aaff</color><width>3</width></LineStyle></Style><LineString><coordinates>7.113600,60.863100,0 6.839630,60.879109,0 7.114000,60.862500,0 7.213120,60.908176,0 7.118600,60.869700,0</coordinates></LineString></Placemark>
</Folder>
<Folder><name>Day 5 2026-10-05 — 出山入海 · 峡湾巴士与汉萨码头</name>
<Placemark><name>1. 弗洛姆巴士站</name><Point><coordinates>7.113600,60.863100,0</coordinates></Point></Placemark>
<Placemark><name>2. Voss 站</name><Point><coordinates>6.410115,60.629105,0</coordinates></Point></Placemark>
<Placemark><name>3. 卑尔根站</name><Point><coordinates>5.333000,60.390000,0</coordinates></Point></Placemark>
<Placemark><name>4. 布吕根 Bryggen</name><Point><coordinates>5.324200,60.397500,0</coordinates></Point></Placemark>
<Placemark><name>5. 鱼市 Fisketorget</name><Point><coordinates>5.324300,60.394400,0</coordinates></Point></Placemark>
<Placemark><name>Day 5 route</name><Style><LineStyle><color>ffaa00aa</color><width>3</width></LineStyle></Style><LineString><coordinates>7.113600,60.863100,0 6.410115,60.629105,0 5.333000,60.390000,0 5.324200,60.397500,0 5.324300,60.394400,0</coordinates></LineString></Placemark>
</Folder>
<Folder><name>Day 6 2026-10-06 — 木屋与雨 · 缆车、艺术馆、汉萨旧巷</name>
<Placemark><name>1. 卑尔根市中心住宿区(Torget)</name><Point><coordinates>5.326000,60.393600,0</coordinates></Point></Placemark>
<Placemark><name>2. 弗洛伊恩缆车下站</name><Point><coordinates>5.330000,60.396000,0</coordinates></Point></Placemark>
<Placemark><name>3. 弗洛伊恩山顶</name><Point><coordinates>5.352000,60.396000,0</coordinates></Point></Placemark>
<Placemark><name>4. 鱼市 Fisketorget</name><Point><coordinates>5.324300,60.394400,0</coordinates></Point></Placemark>
<Placemark><name>5. KODE 艺术馆</name><Point><coordinates>5.330000,60.391500,0</coordinates></Point></Placemark>
<Placemark><name>6. 布吕根 Bryggen</name><Point><coordinates>5.324200,60.397500,0</coordinates></Point></Placemark>
<Placemark><name>Day 6 route</name><Style><LineStyle><color>ff777777</color><width>3</width></LineStyle></Style><LineString><coordinates>5.326000,60.393600,0 5.330000,60.396000,0 5.352000,60.396000,0 5.324300,60.394400,0 5.330000,60.391500,0 5.324200,60.397500,0</coordinates></LineString></Placemark>
</Folder>
<Folder><name>Day 7 2026-10-07 — 潮水回航 · 最后一段峡湾,然后北上转机</name>
<Placemark><name>1. 卑尔根市中心住宿区(Torget)</name><Point><coordinates>5.326000,60.393600,0</coordinates></Point></Placemark>
<Placemark><name>2. Zachariasbryggen 码头</name><Point><coordinates>5.323500,60.394700,0</coordinates></Point></Placemark>
<Placemark><name>3. Torgallmenningen 市中心</name><Point><coordinates>5.324000,60.392500,0</coordinates></Point></Placemark>
<Placemark><name>4. 卑尔根机场 BGO</name><Point><coordinates>5.218100,60.293400,0</coordinates></Point></Placemark>
<Placemark><name>Day 7 route</name><Style><LineStyle><color>ff0000ff</color><width>3</width></LineStyle></Style><LineString><coordinates>5.326000,60.393600,0 5.323500,60.394700,0 5.324000,60.392500,0 5.218100,60.293400,0</coordinates></LineString></Placemark>
</Folder>
<Folder><name>Day 8 2026-10-08 — 云上归途 · 向东飞,吃掉一个夜晚</name>
<Placemark><name>1. 奥斯陆机场酒店</name><Point><coordinates>11.095900,60.195800,0</coordinates></Point></Placemark>
<Placemark><name>2. 奥斯陆机场 OSL 航站楼</name><Point><coordinates>11.100400,60.193900,0</coordinates></Point></Placemark>
<Placemark><name>Day 8 route</name><Style><LineStyle><color>ffff0000</color><width>3</width></LineStyle></Style><LineString><coordinates>11.095900,60.195800,0 11.100400,60.193900,0</coordinates></LineString></Placemark>
</Folder>
</Document></kml>