<?xml version="1.0" encoding="UTF-8"?>
<kml xmlns="http://www.opengis.net/kml/2.2"><Document>
<name>越南 2026 — 河内 · 下龙湾 · 会安/岘港 · 胡志明市(南北纵贯)</name>
<Folder><name>Day 1 2026-12-12 — 落地即入老城:还剑湖与週末夜市</name>
<Placemark><name>1. 内排国际机场 T2</name><Point><coordinates>105.807200,21.221200,0</coordinates></Point></Placemark>
<Placemark><name>2. 河内老城民宿(还剑湖北)</name><Point><coordinates>105.851500,21.034000,0</coordinates></Point></Placemark>
<Placemark><name>3. 玉山祠 · 还剑湖</name><Point><coordinates>105.852500,21.031200,0</coordinates></Point></Placemark>
<Placemark><name>4. 同春市场 · 週末夜市</name><Point><coordinates>105.849700,21.038300,0</coordinates></Point></Placemark>
<Placemark><name>5. 陶缘啤酒角</name><Point><coordinates>105.852400,21.034500,0</coordinates></Point></Placemark>
<Placemark><name>Day 1 route</name><Style><LineStyle><color>ff0000ff</color><width>3</width></LineStyle></Style><LineString><coordinates>105.807200,21.221200,0 105.851500,21.034000,0 105.852500,21.031200,0 105.849700,21.038300,0 105.852400,21.034500,0</coordinates></LineString></Placemark>
</Folder>
<Folder><name>Day 2 2026-12-13 — 文庙、火炉监狱、火车街:老城一整圈</name>
<Placemark><name>1. 河内老城民宿</name><Point><coordinates>105.851500,21.034000,0</coordinates></Point></Placemark>
<Placemark><name>2. 文庙 · 国子监</name><Point><coordinates>105.835400,21.029400,0</coordinates></Point></Placemark>
<Placemark><name>3. 火炉监狱</name><Point><coordinates>105.846500,21.025700,0</coordinates></Point></Placemark>
<Placemark><name>4. 火车街(冯兴段)</name><Point><coordinates>105.846200,21.033300,0</coordinates></Point></Placemark>
<Placemark><name>5. 升龙水上木偶剧院</name><Point><coordinates>105.854600,21.031300,0</coordinates></Point></Placemark>
<Placemark><name>6. 河内老城民宿</name><Point><coordinates>105.851500,21.034000,0</coordinates></Point></Placemark>
<Placemark><name>Day 2 route</name><Style><LineStyle><color>ffff0000</color><width>3</width></LineStyle></Style><LineString><coordinates>105.851500,21.034000,0 105.835400,21.029400,0 105.846500,21.025700,0 105.846200,21.033300,0 105.854600,21.031300,0 105.851500,21.034000,0</coordinates></LineString></Placemark>
</Folder>
<Folder><name>Day 3 2026-12-14 — 上船:惊讶洞、皮划艇、提托岛落日</name>
<Placemark><name>1. 河内老城民宿</name><Point><coordinates>105.851500,21.034000,0</coordinates></Point></Placemark>
<Placemark><name>2. 下龙国际邮轮港</name><Point><coordinates>107.046000,20.949000,0</coordinates></Point></Placemark>
<Placemark><name>3. 惊讶洞</name><Point><coordinates>107.099700,20.849400,0</coordinates></Point></Placemark>
<Placemark><name>4. 陆桶洞</name><Point><coordinates>107.085000,20.831800,0</coordinates></Point></Placemark>
<Placemark><name>5. 提托岛</name><Point><coordinates>107.089800,20.838500,0</coordinates></Point></Placemark>
<Placemark><name>Day 3 route</name><Style><LineStyle><color>ff00aa00</color><width>3</width></LineStyle></Style><LineString><coordinates>105.851500,21.034000,0 107.046000,20.949000,0 107.099700,20.849400,0 107.085000,20.831800,0 107.089800,20.838500,0</coordinates></LineString></Placemark>
</Folder>
<Folder><name>Day 4 2026-12-15 — 湾上清晨,回河内,登上 SE19</name>
<Placemark><name>1. 游船锚地 · 珍珠养殖场</name><Point><coordinates>107.088000,20.846000,0</coordinates></Point></Placemark>
<Placemark><name>2. 下龙国际邮轮港</name><Point><coordinates>107.046000,20.949000,0</coordinates></Point></Placemark>
<Placemark><name>3. 河内老城 · 还剑湖</name><Point><coordinates>105.852400,21.030800,0</coordinates></Point></Placemark>
<Placemark><name>4. 河内火车站 Ga Hà Nội</name><Point><coordinates>105.841200,21.024500,0</coordinates></Point></Placemark>
<Placemark><name>Day 4 route</name><Style><LineStyle><color>ff00aaff</color><width>3</width></LineStyle></Style><LineString><coordinates>107.088000,20.846000,0 107.046000,20.949000,0 105.852400,21.030800,0 105.841200,21.024500,0</coordinates></LineString></Placemark>
</Folder>
<Folder><name>Day 5 2026-12-16 — 海云关外的海岸线,傍晚落进灯笼堆里</name>
<Placemark><name>1. 岘港火车站 Ga Đà Nẵng</name><Point><coordinates>108.209400,16.071500,0</coordinates></Point></Placemark>
<Placemark><name>2. 会安民宿</name><Point><coordinates>108.323000,15.880000,0</coordinates></Point></Placemark>
<Placemark><name>3. 来远桥(日本廊桥)</name><Point><coordinates>108.326000,15.877000,0</coordinates></Point></Placemark>
<Placemark><name>4. 会安中心市场</name><Point><coordinates>108.329000,15.877000,0</coordinates></Point></Placemark>
<Placemark><name>5. 秋盆河灯船码头(白藤街)</name><Point><coordinates>108.328300,15.876300,0</coordinates></Point></Placemark>
<Placemark><name>Day 5 route</name><Style><LineStyle><color>ffaa00aa</color><width>3</width></LineStyle></Style><LineString><coordinates>108.209400,16.071500,0 108.323000,15.880000,0 108.326000,15.877000,0 108.329000,15.877000,0 108.328300,15.876300,0</coordinates></LineString></Placemark>
</Folder>
<Folder><name>Day 6 2026-12-17 — 摩托后座的乡野一日:菜畦、海滩、簸箕船</name>
<Placemark><name>1. 会安民宿</name><Point><coordinates>108.323000,15.880000,0</coordinates></Point></Placemark>
<Placemark><name>2. 茶桂香草村</name><Point><coordinates>108.327000,15.901000,0</coordinates></Point></Placemark>
<Placemark><name>3. 安邦海滩</name><Point><coordinates>108.345000,15.908600,0</coordinates></Point></Placemark>
<Placemark><name>4. 锦青椰林(簸箕船)</name><Point><coordinates>108.367200,15.878500,0</coordinates></Point></Placemark>
<Placemark><name>5. 会安老城 · 阮皇街夜市</name><Point><coordinates>108.327000,15.876000,0</coordinates></Point></Placemark>
<Placemark><name>Day 6 route</name><Style><LineStyle><color>ff777777</color><width>3</width></LineStyle></Style><LineString><coordinates>108.323000,15.880000,0 108.327000,15.901000,0 108.345000,15.908600,0 108.367200,15.878500,0 108.327000,15.876000,0</coordinates></LineString></Placemark>
</Folder>
<Folder><name>Day 7 2026-12-18 — 五行山、韩江,末班机南下西贡</name>
<Placemark><name>1. 会安民宿</name><Point><coordinates>108.323000,15.880000,0</coordinates></Point></Placemark>
<Placemark><name>2. 五行山 · 水山</name><Point><coordinates>108.263700,16.002800,0</coordinates></Point></Placemark>
<Placemark><name>3. 美溪海滩</name><Point><coordinates>108.247000,16.057500,0</coordinates></Point></Placemark>
<Placemark><name>4. 龙桥 · 韩江畔</name><Point><coordinates>108.227000,16.061400,0</coordinates></Point></Placemark>
<Placemark><name>5. 岘港国际机场 T2</name><Point><coordinates>108.199400,16.043900,0</coordinates></Point></Placemark>
<Placemark><name>Day 7 route</name><Style><LineStyle><color>ff0000ff</color><width>3</width></LineStyle></Style><LineString><coordinates>108.323000,15.880000,0 108.263700,16.002800,0 108.247000,16.057500,0 108.227000,16.061400,0 108.199400,16.043900,0</coordinates></LineString></Placemark>
</Folder>
<Folder><name>Day 8 2026-12-19 — 西贡老城步行圈,夜里坐上摩托后座吃街头</name>
<Placemark><name>1. 第一郡民宿</name><Point><coordinates>106.694000,10.769000,0</coordinates></Point></Placemark>
<Placemark><name>2. 战争遗迹博物馆</name><Point><coordinates>106.692200,10.779700,0</coordinates></Point></Placemark>
<Placemark><name>3. 统一宫(独立宫)</name><Point><coordinates>106.695800,10.777200,0</coordinates></Point></Placemark>
<Placemark><name>4. 西贡中心邮局 · 红教堂</name><Point><coordinates>106.699000,10.779900,0</coordinates></Point></Placemark>
<Placemark><name>5. 滨城市场</name><Point><coordinates>106.698000,10.772400,0</coordinates></Point></Placemark>
<Placemark><name>6. 范五老街</name><Point><coordinates>106.693000,10.767000,0</coordinates></Point></Placemark>
<Placemark><name>Day 8 route</name><Style><LineStyle><color>ffff0000</color><width>3</width></LineStyle></Style><LineString><coordinates>106.694000,10.769000,0 106.692200,10.779700,0 106.695800,10.777200,0 106.699000,10.779900,0 106.698000,10.772400,0 106.693000,10.767000,0</coordinates></LineString></Placemark>
</Folder>
<Folder><name>Day 9 2026-12-20 — 四岛、椰林、一条只有桨声的水道</name>
<Placemark><name>1. 第一郡民宿</name><Point><coordinates>106.694000,10.769000,0</coordinates></Point></Placemark>
<Placemark><name>2. 永长寺 · 美萩</name><Point><coordinates>106.373569,10.362837,0</coordinates></Point></Placemark>
<Placemark><name>3. 湄公河四岛(泰山岛)</name><Point><coordinates>106.345000,10.345000,0</coordinates></Point></Placemark>
<Placemark><name>4. 槟椥椰林水道</name><Point><coordinates>106.360000,10.281000,0</coordinates></Point></Placemark>
<Placemark><name>5. 第一郡民宿</name><Point><coordinates>106.694000,10.769000,0</coordinates></Point></Placemark>
<Placemark><name>Day 9 route</name><Style><LineStyle><color>ff00aa00</color><width>3</width></LineStyle></Style><LineString><coordinates>106.694000,10.769000,0 106.373569,10.362837,0 106.345000,10.345000,0 106.360000,10.281000,0 106.694000,10.769000,0</coordinates></LineString></Placemark>
</Folder>
<Folder><name>Day 10 2026-12-21 — 一杯咖啡,然后回家</name>
<Placemark><name>1. 第一郡民宿</name><Point><coordinates>106.694000,10.769000,0</coordinates></Point></Placemark>
<Placemark><name>2. 咖啡公寓(阮惠 42 号)</name><Point><coordinates>106.704000,10.774500,0</coordinates></Point></Placemark>
<Placemark><name>3. 新山一国际机场 T2</name><Point><coordinates>106.652000,10.818800,0</coordinates></Point></Placemark>
<Placemark><name>Day 10 route</name><Style><LineStyle><color>ff00aaff</color><width>3</width></LineStyle></Style><LineString><coordinates>106.694000,10.769000,0 106.704000,10.774500,0 106.652000,10.818800,0</coordinates></LineString></Placemark>
</Folder>
</Document></kml>