<?xml version="1.0" encoding="UTF-8"?>
<kml xmlns="http://www.opengis.net/kml/2.2"><Document>
<name>China 2026 — Beijing &amp; Xi'an</name>
<Folder><name>Day 1 2026-11-11 — Departure</name>
</Folder>
<Folder><name>Day 2 2026-11-12 — Landing, and straight onto the rails</name>
<Placemark><name>1. Beijing Capital Airport T3</name><Point><coordinates>116.610300,40.052400,0</coordinates></Point></Placemark>
<Placemark><name>2. Beijing West Railway Station 北京西站</name><Point><coordinates>116.322000,39.894900,0</coordinates></Point></Placemark>
<Placemark><name>3. Xi'an North Railway Station 西安北站</name><Point><coordinates>108.943000,34.376000,0</coordinates></Point></Placemark>
<Placemark><name>4. Xi'an hotel · Nanyuanmen 南院门</name><Point><coordinates>108.944000,34.257000,0</coordinates></Point></Placemark>
<Placemark><name>5. Muslim Quarter 回民街</name><Point><coordinates>108.938000,34.264600,0</coordinates></Point></Placemark>
<Placemark><name>Day 2 route</name><Style><LineStyle><color>ffff0000</color><width>3</width></LineStyle></Style><LineString><coordinates>116.610300,40.052400,0 116.322000,39.894900,0 108.943000,34.376000,0 108.944000,34.257000,0 108.938000,34.264600,0</coordinates></LineString></Placemark>
</Folder>
<Folder><name>Day 3 2026-11-13 — The Qin emperor's army</name>
<Placemark><name>1. Xi'an hotel · Nanyuanmen 南院门</name><Point><coordinates>108.944000,34.257000,0</coordinates></Point></Placemark>
<Placemark><name>2. Terracotta Army Museum 秦始皇帝陵博物院</name><Point><coordinates>109.278500,34.385300,0</coordinates></Point></Placemark>
<Placemark><name>3. Museum food street 兵马俑小吃街</name><Point><coordinates>109.274000,34.384600,0</coordinates></Point></Placemark>
<Placemark><name>4. Huaqing Palace 华清宫</name><Point><coordinates>109.211300,34.363900,0</coordinates></Point></Placemark>
<Placemark><name>5. Xi'an hotel · Nanyuanmen 南院门</name><Point><coordinates>108.944000,34.257000,0</coordinates></Point></Placemark>
<Placemark><name>Day 3 route</name><Style><LineStyle><color>ff00aa00</color><width>3</width></LineStyle></Style><LineString><coordinates>108.944000,34.257000,0 109.278500,34.385300,0 109.274000,34.384600,0 109.211300,34.363900,0 108.944000,34.257000,0</coordinates></LineString></Placemark>
</Folder>
<Folder><name>Day 4 2026-11-14 — On the wall, under the pagoda</name>
<Placemark><name>1. Xi'an hotel · Nanyuanmen 南院门</name><Point><coordinates>108.944000,34.257000,0</coordinates></Point></Placemark>
<Placemark><name>2. City Wall South Gate 永宁门</name><Point><coordinates>108.946900,34.249400,0</coordinates></Point></Placemark>
<Placemark><name>3. Muslim Quarter 回民街</name><Point><coordinates>108.938000,34.264600,0</coordinates></Point></Placemark>
<Placemark><name>4. Shaanxi History Museum 陕西历史博物馆</name><Point><coordinates>108.948200,34.222400,0</coordinates></Point></Placemark>
<Placemark><name>5. Big Wild Goose Pagoda 大雁塔</name><Point><coordinates>108.959800,34.218600,0</coordinates></Point></Placemark>
<Placemark><name>6. Datang Everbright City 大唐不夜城</name><Point><coordinates>108.961300,34.213600,0</coordinates></Point></Placemark>
<Placemark><name>7. Xi'an hotel · Nanyuanmen 南院门</name><Point><coordinates>108.944000,34.257000,0</coordinates></Point></Placemark>
<Placemark><name>Day 4 route</name><Style><LineStyle><color>ff00aaff</color><width>3</width></LineStyle></Style><LineString><coordinates>108.944000,34.257000,0 108.946900,34.249400,0 108.938000,34.264600,0 108.948200,34.222400,0 108.959800,34.218600,0 108.961300,34.213600,0 108.944000,34.257000,0</coordinates></LineString></Placemark>
</Folder>
<Folder><name>Day 5 2026-11-15 — North again, and a circle of blue tiles</name>
<Placemark><name>1. Xi'an hotel · Nanyuanmen 南院门</name><Point><coordinates>108.944000,34.257000,0</coordinates></Point></Placemark>
<Placemark><name>2. Xi'an North Railway Station 西安北站</name><Point><coordinates>108.943000,34.376000,0</coordinates></Point></Placemark>
<Placemark><name>3. Beijing West Railway Station 北京西站</name><Point><coordinates>116.322000,39.894900,0</coordinates></Point></Placemark>
<Placemark><name>4. Beijing hotel · Xianyukou 鲜鱼口</name><Point><coordinates>116.402000,39.896800,0</coordinates></Point></Placemark>
<Placemark><name>5. Temple of Heaven East Gate 天坛东门</name><Point><coordinates>116.415500,39.882300,0</coordinates></Point></Placemark>
<Placemark><name>6. Qianmen Street 前门大街</name><Point><coordinates>116.397200,39.896300,0</coordinates></Point></Placemark>
<Placemark><name>Day 5 route</name><Style><LineStyle><color>ffaa00aa</color><width>3</width></LineStyle></Style><LineString><coordinates>108.944000,34.257000,0 108.943000,34.376000,0 116.322000,39.894900,0 116.402000,39.896800,0 116.415500,39.882300,0 116.397200,39.896300,0</coordinates></LineString></Placemark>
</Folder>
<Folder><name>Day 6 2026-11-16 — The wall, on a Monday</name>
<Placemark><name>1. Beijing hotel · Xianyukou 鲜鱼口</name><Point><coordinates>116.402000,39.896800,0</coordinates></Point></Placemark>
<Placemark><name>2. Dongzhimen transport hub 东直门枢纽</name><Point><coordinates>116.434000,39.941000,0</coordinates></Point></Placemark>
<Placemark><name>3. Mutianyu visitor centre 慕田峪游客中心</name><Point><coordinates>116.570400,40.431900,0</coordinates></Point></Placemark>
<Placemark><name>4. Mutianyu Tower 14 慕田峪14号敌楼</name><Point><coordinates>116.568000,40.437400,0</coordinates></Point></Placemark>
<Placemark><name>5. Mutianyu Tower 20 正关台</name><Point><coordinates>116.564300,40.440200,0</coordinates></Point></Placemark>
<Placemark><name>6. Mutianyu base village 慕田峪村</name><Point><coordinates>116.569200,40.431200,0</coordinates></Point></Placemark>
<Placemark><name>7. Beijing hotel · Xianyukou 鲜鱼口</name><Point><coordinates>116.402000,39.896800,0</coordinates></Point></Placemark>
<Placemark><name>Day 6 route</name><Style><LineStyle><color>ff777777</color><width>3</width></LineStyle></Style><LineString><coordinates>116.402000,39.896800,0 116.434000,39.941000,0 116.570400,40.431900,0 116.568000,40.437400,0 116.564300,40.440200,0 116.569200,40.431200,0 116.402000,39.896800,0</coordinates></LineString></Placemark>
</Folder>
<Folder><name>Day 7 2026-11-17 — Down the imperial axis</name>
<Placemark><name>1. Beijing hotel · Xianyukou 鲜鱼口</name><Point><coordinates>116.402000,39.896800,0</coordinates></Point></Placemark>
<Placemark><name>2. Tiananmen Square 天安门广场</name><Point><coordinates>116.397600,39.905500,0</coordinates></Point></Placemark>
<Placemark><name>3. Meridian Gate 午门 (Forbidden City)</name><Point><coordinates>116.397200,39.910700,0</coordinates></Point></Placemark>
<Placemark><name>4. Gate of Divine Might 神武门</name><Point><coordinates>116.397200,39.924500,0</coordinates></Point></Placemark>
<Placemark><name>5. Jingshan Wanchun Pavilion 景山万春亭</name><Point><coordinates>116.390600,39.926800,0</coordinates></Point></Placemark>
<Placemark><name>6. Shichahai Silver Ingot Bridge 银锭桥</name><Point><coordinates>116.388000,39.937500,0</coordinates></Point></Placemark>
<Placemark><name>7. Drum Tower 鼓楼</name><Point><coordinates>116.391000,39.940700,0</coordinates></Point></Placemark>
<Placemark><name>Day 7 route</name><Style><LineStyle><color>ff0000ff</color><width>3</width></LineStyle></Style><LineString><coordinates>116.402000,39.896800,0 116.397600,39.905500,0 116.397200,39.910700,0 116.397200,39.924500,0 116.390600,39.926800,0 116.388000,39.937500,0 116.391000,39.940700,0</coordinates></LineString></Placemark>
</Folder>
<Folder><name>Day 8 2026-11-18 — Homeward</name>
<Placemark><name>1. Beijing hotel · Xianyukou 鲜鱼口</name><Point><coordinates>116.402000,39.896800,0</coordinates></Point></Placemark>
<Placemark><name>2. Beijing Capital Airport T3</name><Point><coordinates>116.610300,40.052400,0</coordinates></Point></Placemark>
<Placemark><name>Day 8 route</name><Style><LineStyle><color>ffff0000</color><width>3</width></LineStyle></Style><LineString><coordinates>116.402000,39.896800,0 116.610300,40.052400,0</coordinates></LineString></Placemark>
</Folder>
</Document></kml>